ONEWEB-0383             
1 49309U 21090AG  26075.16781106  .00000308  00000+0  79585-3 0  9994
2 49309  87.8975 308.2566 0001455  86.5549 273.5747 13.14503099215371
ONEWEB-0384             
1 49310U 21090AH  26075.10751036  .00000121  00000+0  26524-3 0  9997
2 49310  87.9165 293.0642 0001140  93.8582 266.2682 13.20807818217541
ONEWEB-0385             
1 49311U 21090AJ  26075.10846906  .00000085  00000+0  17734-3 0  9991
2 49311  87.9163 293.0254 0001457  85.1022 275.0278 13.20771755217519
ONEWEB-0386             
1 49312U 21090AK  26075.05006672  .00000010  00000+0 -68047-5 0  9998
2 49312  87.9166 293.0222 0001400  89.9224 270.2070 13.20770873217520
ONEWEB-0387             
1 49313U 21090AL  26075.11003417  .00000128  00000+0  28390-3 0  9994
2 49313  87.9152 293.0468 0001524  75.8238 284.3065 13.20770582217532
ONEWEB-0388             
1 49314U 21090AM  26075.15317578  .00000084  00000+0  17747-3 0  9990
2 49314  87.9220 323.5114 0001566  81.0737 279.0573 13.19724760214149
ONEWEB-0389             
1 50469U 21132A   26075.10098067  .00000002  00000+0 -28664-4 0  9996
2 50469  87.9159  24.3530 0001596  69.9951 290.1352 13.17650324205823
ONEWEB-0390             
1 50470U 21132B   26075.10266018  .00000031  00000+0  47516-4 0  9999
2 50470  87.9160  24.3530 0002068  75.6243 284.5118 13.17647875205824
ONEWEB-0391             
1 50471U 21132C   26075.10435668 -.00000114  00000+0 -32694-3 0  9993
2 50471  87.9161  24.3616 0001768  52.9689 307.1604 13.17650286205821
ONEWEB-0392             
1 50472U 21132D   26075.13473235 -.00000035  00000+0 -12254-3 0  9991
2 50472  87.9171  24.3169 0001657  69.0383 291.0926 13.17649002205869
ONEWEB-0393             
1 50473U 21132E   26075.10786298  .00000069  00000+0  14552-3 0  9993
2 50473  87.9170  24.3451 0001784  74.8565 285.2764 13.17648977205854
ONEWEB-0394             
1 50474U 21132F   26075.14914293  .00000007  00000+0 -15677-4 0  9999
2 50474  87.9253 353.9218 0001637  75.7961 284.3353 13.18686592209333
ONEWEB-0395             
1 50475U 21132G   26074.93239594 -.00000428  00000+0 -12435-2 0  9995
2 50475  87.8869  39.6110 0001908  75.6529 284.4811 13.11417308203496
ONEWEB-0396             
1 50476U 21132H   26075.06666927 -.00000060  00000+0 -18418-3 0  9995
2 50476  87.9252 353.9500 0001701  76.5119 283.6203 13.18686402209363
ONEWEB-0397             
1 50477U 21132J   26075.15739099  .00000038  00000+0  64687-4 0  9990
2 50477  87.9254 353.9322 0001573  79.7378 280.3931 13.18687401209358
ONEWEB-0398             
1 50478U 21132K   26074.97648329  .00000366  00000+0  99564-3 0  9990
2 50478  87.8879  39.5834 0002205  76.2496 283.8877 13.11414676203392
ONEWEB-0399             
1 50479U 21132L   26075.19181005  .00000628  00000+0  17373-2 0  9997
2 50479  87.8881  39.5500 0001382  74.7941 285.3340 13.11417408203410
