[{"OBJECT_NAME":"ONEWEB-0383","OBJECT_ID":"2021-090AG","EPOCH":"2026-03-16T04:01:38.875584","MEAN_MOTION":13.14503099,"ECCENTRICITY":0.00014553,"INCLINATION":87.8975,"RA_OF_ASC_NODE":308.2566,"ARG_OF_PERICENTER":86.5549,"MEAN_ANOMALY":273.5747,"EPHEMERIS_TYPE":0,"CLASSIFICATION_TYPE":"U","NORAD_CAT_ID":49309,"ELEMENT_SET_NO":999,"REV_AT_EPOCH":21537,"BSTAR":0.00079584724,"MEAN_MOTION_DOT":3.08e-6,"MEAN_MOTION_DDOT":0},{"OBJECT_NAME":"ONEWEB-0384","OBJECT_ID":"2021-090AH","EPOCH":"2026-03-16T02:34:48.895104","MEAN_MOTION":13.20807818,"ECCENTRICITY":0.00011404,"INCLINATION":87.9165,"RA_OF_ASC_NODE":293.0642,"ARG_OF_PERICENTER":93.8582,"MEAN_ANOMALY":266.2682,"EPHEMERIS_TYPE":0,"CLASSIFICATION_TYPE":"U","NORAD_CAT_ID":49310,"ELEMENT_SET_NO":999,"REV_AT_EPOCH":21754,"BSTAR":0.00026523807,"MEAN_MOTION_DOT":1.21e-6,"MEAN_MOTION_DDOT":0},{"OBJECT_NAME":"ONEWEB-0385","OBJECT_ID":"2021-090AJ","EPOCH":"2026-03-16T02:36:11.726784","MEAN_MOTION":13.20771755,"ECCENTRICITY":0.00014576,"INCLINATION":87.9163,"RA_OF_ASC_NODE":293.0254,"ARG_OF_PERICENTER":85.1022,"MEAN_ANOMALY":275.0278,"EPHEMERIS_TYPE":0,"CLASSIFICATION_TYPE":"U","NORAD_CAT_ID":49311,"ELEMENT_SET_NO":999,"REV_AT_EPOCH":21751,"BSTAR":0.00017733574,"MEAN_MOTION_DOT":8.5e-7,"MEAN_MOTION_DDOT":0},{"OBJECT_NAME":"ONEWEB-0386","OBJECT_ID":"2021-090AK","EPOCH":"2026-03-16T01:12:05.764608","MEAN_MOTION":13.20770873,"ECCENTRICITY":0.00014001,"INCLINATION":87.9166,"RA_OF_ASC_NODE":293.0222,"ARG_OF_PERICENTER":89.9224,"MEAN_ANOMALY":270.207,"EPHEMERIS_TYPE":0,"CLASSIFICATION_TYPE":"U","NORAD_CAT_ID":49312,"ELEMENT_SET_NO":999,"REV_AT_EPOCH":21752,"BSTAR":-6.804669e-6,"MEAN_MOTION_DOT":1.0e-7,"MEAN_MOTION_DDOT":0},{"OBJECT_NAME":"ONEWEB-0387","OBJECT_ID":"2021-090AL","EPOCH":"2026-03-16T02:38:26.952288","MEAN_MOTION":13.20770582,"ECCENTRICITY":0.00015248,"INCLINATION":87.9152,"RA_OF_ASC_NODE":293.0468,"ARG_OF_PERICENTER":75.8238,"MEAN_ANOMALY":284.3065,"EPHEMERIS_TYPE":0,"CLASSIFICATION_TYPE":"U","NORAD_CAT_ID":49313,"ELEMENT_SET_NO":999,"REV_AT_EPOCH":21753,"BSTAR":0.00028389519,"MEAN_MOTION_DOT":1.28e-6,"MEAN_MOTION_DDOT":0},{"OBJECT_NAME":"ONEWEB-0388","OBJECT_ID":"2021-090AM","EPOCH":"2026-03-16T03:40:34.387392","MEAN_MOTION":13.1972476,"ECCENTRICITY":0.00015665,"INCLINATION":87.922,"RA_OF_ASC_NODE":323.5114,"ARG_OF_PERICENTER":81.0737,"MEAN_ANOMALY":279.0573,"EPHEMERIS_TYPE":0,"CLASSIFICATION_TYPE":"U","NORAD_CAT_ID":49314,"ELEMENT_SET_NO":999,"REV_AT_EPOCH":21414,"BSTAR":0.00017746863,"MEAN_MOTION_DOT":8.4e-7,"MEAN_MOTION_DDOT":0},{"OBJECT_NAME":"ONEWEB-0389","OBJECT_ID":"2021-132A","EPOCH":"2026-03-16T02:25:24.729888","MEAN_MOTION":13.17650324,"ECCENTRICITY":0.00015966,"INCLINATION":87.9159,"RA_OF_ASC_NODE":24.353,"ARG_OF_PERICENTER":69.9951,"MEAN_ANOMALY":290.1352,"EPHEMERIS_TYPE":0,"CLASSIFICATION_TYPE":"U","NORAD_CAT_ID":50469,"ELEMENT_SET_NO":999,"REV_AT_EPOCH":20582,"BSTAR":-2.8663785e-5,"MEAN_MOTION_DOT":2.0e-8,"MEAN_MOTION_DDOT":0},{"OBJECT_NAME":"ONEWEB-0390","OBJECT_ID":"2021-132B","EPOCH":"2026-03-16T02:27:49.839552","MEAN_MOTION":13.17647875,"ECCENTRICITY":0.00020685,"INCLINATION":87.916,"RA_OF_ASC_NODE":24.353,"ARG_OF_PERICENTER":75.6243,"MEAN_ANOMALY":284.5118,"EPHEMERIS_TYPE":0,"CLASSIFICATION_TYPE":"U","NORAD_CAT_ID":50470,"ELEMENT_SET_NO":999,"REV_AT_EPOCH":20582,"BSTAR":4.7516133e-5,"MEAN_MOTION_DOT":3.1e-7,"MEAN_MOTION_DDOT":0},{"OBJECT_NAME":"ONEWEB-0391","OBJECT_ID":"2021-132C","EPOCH":"2026-03-16T02:30:16.417152","MEAN_MOTION":13.17650286,"ECCENTRICITY":0.00017682,"INCLINATION":87.9161,"RA_OF_ASC_NODE":24.3616,"ARG_OF_PERICENTER":52.9689,"MEAN_ANOMALY":307.1604,"EPHEMERIS_TYPE":0,"CLASSIFICATION_TYPE":"U","NORAD_CAT_ID":50471,"ELEMENT_SET_NO":999,"REV_AT_EPOCH":20582,"BSTAR":-0.00032693552,"MEAN_MOTION_DOT":-1.14e-6,"MEAN_MOTION_DDOT":0},{"OBJECT_NAME":"ONEWEB-0392","OBJECT_ID":"2021-132D","EPOCH":"2026-03-16T03:14:00.875040","MEAN_MOTION":13.17649002,"ECCENTRICITY":0.00016578,"INCLINATION":87.9171,"RA_OF_ASC_NODE":24.3169,"ARG_OF_PERICENTER":69.0383,"MEAN_ANOMALY":291.0926,"EPHEMERIS_TYPE":0,"CLASSIFICATION_TYPE":"U","NORAD_CAT_ID":50472,"ELEMENT_SET_NO":999,"REV_AT_EPOCH":20586,"BSTAR":-0.00012253742,"MEAN_MOTION_DOT":-3.5e-7,"MEAN_MOTION_DDOT":0},{"OBJECT_NAME":"ONEWEB-0393","OBJECT_ID":"2021-132E","EPOCH":"2026-03-16T02:35:19.361472","MEAN_MOTION":13.17648977,"ECCENTRICITY":0.00017845,"INCLINATION":87.917,"RA_OF_ASC_NODE":24.3451,"ARG_OF_PERICENTER":74.8565,"MEAN_ANOMALY":285.2764,"EPHEMERIS_TYPE":0,"CLASSIFICATION_TYPE":"U","NORAD_CAT_ID":50473,"ELEMENT_SET_NO":999,"REV_AT_EPOCH":20585,"BSTAR":0.00014552407,"MEAN_MOTION_DOT":6.9e-7,"MEAN_MOTION_DDOT":0},{"OBJECT_NAME":"ONEWEB-0394","OBJECT_ID":"2021-132F","EPOCH":"2026-03-16T03:34:45.949152","MEAN_MOTION":13.18686592,"ECCENTRICITY":0.00016376,"INCLINATION":87.9253,"RA_OF_ASC_NODE":353.9218,"ARG_OF_PERICENTER":75.7961,"MEAN_ANOMALY":284.3353,"EPHEMERIS_TYPE":0,"CLASSIFICATION_TYPE":"U","NORAD_CAT_ID":50474,"ELEMENT_SET_NO":999,"REV_AT_EPOCH":20933,"BSTAR":-1.567662e-5,"MEAN_MOTION_DOT":7.0e-8,"MEAN_MOTION_DDOT":0},{"OBJECT_NAME":"ONEWEB-0395","OBJECT_ID":"2021-132G","EPOCH":"2026-03-15T22:22:39.009216","MEAN_MOTION":13.11417308,"ECCENTRICITY":0.0001908,"INCLINATION":87.8869,"RA_OF_ASC_NODE":39.611,"ARG_OF_PERICENTER":75.6529,"MEAN_ANOMALY":284.4811,"EPHEMERIS_TYPE":0,"CLASSIFICATION_TYPE":"U","NORAD_CAT_ID":50475,"ELEMENT_SET_NO":999,"REV_AT_EPOCH":20349,"BSTAR":-0.0012435016,"MEAN_MOTION_DOT":-4.28e-6,"MEAN_MOTION_DDOT":0},{"OBJECT_NAME":"ONEWEB-0396","OBJECT_ID":"2021-132H","EPOCH":"2026-03-16T01:36:00.224928","MEAN_MOTION":13.18686402,"ECCENTRICITY":0.00017012,"INCLINATION":87.9252,"RA_OF_ASC_NODE":353.95,"ARG_OF_PERICENTER":76.5119,"MEAN_ANOMALY":283.6203,"EPHEMERIS_TYPE":0,"CLASSIFICATION_TYPE":"U","NORAD_CAT_ID":50476,"ELEMENT_SET_NO":999,"REV_AT_EPOCH":20936,"BSTAR":-0.00018417782,"MEAN_MOTION_DOT":-6.0e-7,"MEAN_MOTION_DDOT":0},{"OBJECT_NAME":"ONEWEB-0397","OBJECT_ID":"2021-132J","EPOCH":"2026-03-16T03:46:38.581536","MEAN_MOTION":13.18687401,"ECCENTRICITY":0.00015734,"INCLINATION":87.9254,"RA_OF_ASC_NODE":353.9322,"ARG_OF_PERICENTER":79.7378,"MEAN_ANOMALY":280.3931,"EPHEMERIS_TYPE":0,"CLASSIFICATION_TYPE":"U","NORAD_CAT_ID":50477,"ELEMENT_SET_NO":999,"REV_AT_EPOCH":20935,"BSTAR":6.4686667e-5,"MEAN_MOTION_DOT":3.8e-7,"MEAN_MOTION_DDOT":0},{"OBJECT_NAME":"ONEWEB-0398","OBJECT_ID":"2021-132K","EPOCH":"2026-03-15T23:26:08.156256","MEAN_MOTION":13.11414676,"ECCENTRICITY":0.00022053,"INCLINATION":87.8879,"RA_OF_ASC_NODE":39.5834,"ARG_OF_PERICENTER":76.2496,"MEAN_ANOMALY":283.8877,"EPHEMERIS_TYPE":0,"CLASSIFICATION_TYPE":"U","NORAD_CAT_ID":50478,"ELEMENT_SET_NO":999,"REV_AT_EPOCH":20339,"BSTAR":0.00099564447,"MEAN_MOTION_DOT":3.66e-6,"MEAN_MOTION_DDOT":0},{"OBJECT_NAME":"ONEWEB-0399","OBJECT_ID":"2021-132L","EPOCH":"2026-03-16T04:36:12.388320","MEAN_MOTION":13.11417408,"ECCENTRICITY":0.00013823,"INCLINATION":87.8881,"RA_OF_ASC_NODE":39.55,"ARG_OF_PERICENTER":74.7941,"MEAN_ANOMALY":285.334,"EPHEMERIS_TYPE":0,"CLASSIFICATION_TYPE":"U","NORAD_CAT_ID":50479,"ELEMENT_SET_NO":999,"REV_AT_EPOCH":20341,"BSTAR":0.001737269,"MEAN_MOTION_DOT":6.28e-6,"MEAN_MOTION_DDOT":0}]
